{"type":"FeatureCollection","features":[{"type":"Feature","id":"036","properties":{"name":"Australia","source":"Natural Earth via world-atlas countries-50m"},"geometry":{"type":"MultiPolygon","coordinates":[[[[143.1788317883179,-11.955228731662302],[143.1536315363154,-12.075012969973443],[143.10323103231036,-12.170493159931581],[143.09963099631,-12.226045270452687],[143.11043110431103,-12.304165425872995],[143.18963189631899,-12.361453539847886],[143.25443254432548,-12.397909612377362],[143.29043290432907,-12.498597812696872],[143.40203402034024,-12.639214092453415],[143.39843398433987,-12.736430285865353],[143.45603456034564,-12.85621452417648],[143.51363513635135,-13.094046997344961],[143.5280352803528,-13.304103415252897],[143.58563585635858,-13.442983691555654],[143.549635496355,-13.741576285606598],[143.58923589235894,-13.86309652737151],[143.64323643236435,-13.96378472769102],[143.70803708037084,-14.165161128330027],[143.75483754837552,-14.349177494431189],[143.82323823238232,-14.401257598044722],[143.960039600396,-14.463753722380957],[144.1076410764108,-14.394313584229579],[144.20844208442088,-14.302305401178998],[144.320043200432,-14.279737356279796],[144.47484474844748,-14.231129259573834],[144.58644586445865,-14.354385504792532],[144.6476464764648,-14.493265781095303],[144.91404914049144,-14.673810140288893],[145.06525065250656,-14.791858375146234],[145.18045180451804,-14.856090502936269],[145.28845288452885,-14.942890675625492],[145.27765277652776,-15.029690848314715],[145.25245252452527,-15.097394983012322],[145.27765277652776,-15.203291193693175],[145.29205292052922,-15.326547438911874],[145.27045270452703,-15.475843735937346],[145.34965349653498,-15.70152418492934],[145.37485374853748,-15.880332540669144],[145.4576545765458,-16.055668889501376],[145.45045450454506,-16.23621324869498],[145.4360543605436,-16.30565338684636],[145.42525425254252,-16.406341587165855],[145.490054900549,-16.531333835838353],[145.55125551255514,-16.625078022342706],[145.63765637656377,-16.725766222662216],[145.75645756457567,-16.880270530049046],[145.83925839258393,-16.909782588763377],[145.91125911259115,-16.91325459567095],[145.90045900459006,-17.06949490651155],[146.04806048060482,-17.380239524738982],[146.1272612726127,-17.63543203244531],[146.0732607326073,-17.97742471284087],[146.02286022860227,-18.175329106572306],[146.03366033660336,-18.272545299984245],[146.22446224462243,-18.510377773152726],[146.33246332463324,-18.55377785949733],[146.3108631086311,-18.666618083993328],[146.29646296462965,-18.84195443282556],[146.38286382863828,-18.97736270222076],[146.480064800648,-19.07805090254027],[146.5880658806588,-19.13881102342272],[146.69246692466925,-19.187419120128695],[146.8292682926829,-19.236027216834657],[147.00207002070022,-19.256859258280073],[147.0920709207092,-19.333243410246595],[147.13887138871388,-19.394003531129044],[147.27927279272797,-19.41483557257446],[147.34047340473404,-19.402683548397974],[147.419674196742,-19.378379500044986],[147.47007470074703,-19.42004358293582],[147.50967509675098,-19.473859690003138],[147.5852758527585,-19.62315598702861],[147.74367743677436,-19.770716280600297],[147.85167851678517,-19.795020328953285],[147.91647916479167,-19.869668477466007],[148.0028800288003,-19.888764515457638],[148.08208082080824,-19.899180536180353],[148.190081900819,-19.956468650155244],[148.36648366483666,-20.086668909189086],[148.52848528485288,-20.109236954088274],[148.60048600486004,-20.14569302661775],[148.7588875888759,-20.28978131328188],[148.82008820088203,-20.366165465248386],[148.88488884888852,-20.48074169319817],[148.80568805688057,-20.491157713920884],[148.73008730087304,-20.468589669021682],[148.68328683286836,-20.579693890063893],[148.7876878768788,-20.735934200904495],[148.91368913689138,-20.84530241849292],[149.06129061290613,-20.96161464989649],[149.20529205292053,-21.124798974552235],[149.24129241292417,-21.24979122322472],[149.28089280892812,-21.300135323384467],[149.3276932769328,-21.475471672216713],[149.45369453694536,-21.577895875989995],[149.4608946089461,-21.76538424899873],[149.5256952569526,-22.024048763612626],[149.59409594095945,-22.258409229873536],[149.6444964449645,-22.327849368024914],[149.70569705697056,-22.44068959252091],[149.77049770497706,-22.42680156489064],[149.8208982089821,-22.390345492361163],[149.92169921699218,-22.501449713403375],[149.97569975699759,-22.550057810109337],[150.00450004500044,-22.52228175484879],[149.94329943299437,-22.308753330033284],[149.9828998289983,-22.1837610813608],[150.0189001890019,-22.16813705027674],[150.07650076500767,-22.16466504336917],[150.14130141301416,-22.26535324368868],[150.2349023490235,-22.37298545782332],[150.4041040410404,-22.46846564778147],[150.54090540905412,-22.558737827378266],[150.58050580505807,-22.555265820470694],[150.5661056610566,-22.485825682319316],[150.56970569705697,-22.38340147854602],[150.62370623706238,-22.36777744746196],[150.67410674106742,-22.41812154762171],[150.7641076410764,-22.57609786191611],[150.78210782107823,-22.9024665112276],[150.78210782107823,-23.176755056925558],[150.84330843308436,-23.457987616438658],[150.92970929709298,-23.532635764951394],[150.98730987309875,-23.602075903102772],[151.08811088110883,-23.69582008960714],[151.15291152911533,-23.784356265750148],[151.2357123571236,-23.824284345187195],[151.50211502115025,-24.011772718195914],[151.5741157411574,-24.034340763095116],[151.68931689316895,-24.037812770002688],[151.83331833318334,-24.122876939238125],[151.9017190171902,-24.200997094658433],[152.0565205652057,-24.49438167834802],[152.12852128521286,-24.596805882121316],[152.28332283322834,-24.699230085894598],[152.3517235172352,-24.7322141515165],[152.45612456124564,-24.80165428966788],[152.49212492124923,-24.904078493441176],[152.50292502925032,-24.963102610869853],[152.5641256412564,-25.07247082845828],[152.65412654126544,-25.20267108749212],[152.7909279092791,-25.273847229097285],[152.91332913329137,-25.431823543391673],[152.92052920529204,-25.688752054551784],[152.98532985329854,-25.815480306678054],[153.02853028530285,-25.87103241719916],[153.12573125731257,-25.923112520812694],[153.16533165331657,-25.964776603703527],[153.08253082530825,-26.30329727719151],[153.1617316173162,-26.982074627621266],[153.11853118531184,-27.19386704898298],[153.1977319773198,-27.40392346689091],[153.3849338493385,-27.76848419218566],[153.4281342813428,-27.896948447765716],[153.45333453334536,-28.047980748244974],[153.57573575735756,-28.240677131615058],[153.5685356853569,-28.534061715304645],[153.61533615336157,-28.672941991607402],[153.60453604536048,-28.855222354254785],[153.46053460534608,-29.049654741078648],[153.3489334893349,-29.2909592211547],[153.34533345333455,-29.49580762870128],[153.27333273332732,-29.891616416164155],[153.22293222932228,-29.999248630298794],[153.1869318693187,-30.164168958408325],[153.0321303213032,-30.563449752778766],[153.02493024930249,-30.719690063619375],[153.04653046530467,-30.907178436628108],[153.02133021330212,-31.085986792367912],[152.98172981729817,-31.209243037586617],[152.9457294572946,-31.434923486578604],[152.78732787327874,-31.785596184243083],[152.5605256052561,-32.04599670231076],[152.54612546125463,-32.2439010960422],[152.51732517325172,-32.330701268731424],[152.47052470524704,-32.43833348286607],[152.33012330123302,-32.558117721177204],[152.24732247322476,-32.60846182133695],[152.21492214922148,-32.67790195948834],[152.13572135721358,-32.67790195948834],[152.13572135721358,-32.70047000438753],[152.189721897219,-32.72130204583295],[152.16452164521644,-32.757758118362425],[151.9557195571956,-32.82025424269867],[151.81171811718116,-32.90184640502654],[151.66771667716677,-33.098014795304195],[151.6065160651607,-33.20217500253126],[151.5309153091531,-33.30112719939699],[151.48411484114843,-33.34799929264916],[151.46251462514624,-33.39660738935513],[151.43371433714339,-33.52159963802762],[151.3581135811358,-33.54416768292682],[151.29331293312936,-33.580623755456294],[151.3221132211322,-33.69867199031364],[151.289712897129,-33.834080259708834],[151.2789127891279,-33.926088442759415],[151.24291242912432,-33.98511256018809],[151.20331203312037,-33.964280518742676],[151.16731167311673,-33.9729605360116],[151.12411124111242,-34.00594460163351],[151.19251192511928,-34.01462461890243],[151.23211232112322,-34.03024864998649],[151.0917109171092,-34.16218491247412],[150.9621096210962,-34.29759318186931],[150.92610926109262,-34.38612935801232],[150.87210872108722,-34.498969582508316],[150.82170821708218,-34.74895407985329],[150.78210782107823,-34.893042366517406],[150.81090810908108,-34.99373056683691],[150.80370803708036,-35.01282660482854],[150.7749077490775,-35.019770618643676],[150.75690756907568,-35.00761859446718],[150.6957069570696,-35.04233866354288],[150.68130681306815,-35.07705873261857],[150.70650706507064,-35.12045881896318],[150.7209072090721,-35.13434684659346],[150.71370713707137,-35.15517888803887],[150.69210692106924,-35.17774693293807],[150.63450634506347,-35.17774693293807],[150.5661056610566,-35.214203005467546],[150.37530375303754,-35.58397174112365],[150.29250292502928,-35.68292393798937],[150.19530195301957,-35.83395623846862],[150.15930159301593,-35.9711005113176],[150.13050130501307,-36.120396808343074],[150.0945009450095,-36.372117309141835],[150.0621006210062,-36.55092566488164],[149.98649986499868,-36.72279000680631],[149.96129961299613,-36.84604625202501],[149.95049950499504,-37.08040671828592],[149.98649986499868,-37.25921507402573],[149.96129961299613,-37.3529592605301],[149.96129961299613,-37.443231440126894],[149.93249932499327,-37.52829560936233],[149.810098100981,-37.54739164735396],[149.70929709297093,-37.61683178550535],[149.56529565295654,-37.72967201000134],[149.48249482494828,-37.77133609289217],[149.29889298892988,-37.80258415506029],[148.94248942489423,-37.788696127430015],[148.26208262082622,-37.83036021032084],[148.12888128881292,-37.856400262127615],[147.87687876878772,-37.934520417547915],[147.63207632076325,-38.056040659312835],[147.39447394473945,-38.21922498396858],[146.85806858068582,-38.663641868137425],[146.43686436864368,-38.71224996484339],[146.3576635766358,-38.71224996484339],[146.2928629286293,-38.7000979406669],[146.21726217262176,-38.72787399592745],[146.21726217262176,-38.78342610644855],[146.28566285662856,-38.84071422042344],[146.3360633606336,-38.89453032749076],[146.4260642606426,-38.81988217897803],[146.4656646566466,-38.84071422042344],[146.480064800648,-38.97785849327242],[146.48366483664836,-39.06465866596165],[146.4548645486455,-39.111530759213835],[146.4008640086401,-39.146250828289524],[146.33966339663397,-39.12368278339032],[146.33246332463324,-39.07681069013814],[146.25326253262534,-38.96397046564215],[146.159661596616,-38.86501826877643],[146.069660696607,-38.83377020660831],[146.01926019260196,-38.86675427223021],[145.93645936459365,-38.90147434130591],[145.86445864458648,-38.776482092633415],[145.79245792457925,-38.66711387504499],[145.69165691656917,-38.654961850868496],[145.60525605256055,-38.65669785432228],[145.5368553685537,-38.6098257610701],[145.39645396453966,-38.53517761255737],[145.42525425254252,-38.47788949858248],[145.46125461254616,-38.417129377700014],[145.54045540455405,-38.39456133280082],[145.51885518855192,-38.31123316701916],[145.47565475654756,-38.24352903232156],[145.3676536765368,-38.22616899778372],[145.29205292052922,-38.23832102196021],[145.2488524885249,-38.290401125573744],[145.19125191251914,-38.38414531207811],[144.96084960849612,-38.50045754348167],[144.84564845648458,-38.436225415691645],[144.7160471604716,-38.3407452257335],[144.7808478084781,-38.347689239548636],[144.91044910449108,-38.344217232641064],[145.01845018450183,-38.25915306340563],[145.06525065250656,-38.20533695633831],[145.1192511925119,-38.090760728388524],[145.0508505085051,-38.01090456951444],[144.9860498604986,-37.95188045208576],[144.89244892448926,-37.899800348472226],[144.53964539645398,-38.07687270075825],[144.4640446404464,-38.10291275256502],[144.39564395643959,-38.13763282164071],[144.5180451804518,-38.167144880355046],[144.59004590045902,-38.158464863086124],[144.66564665646655,-38.21054496669966],[144.54324543245434,-38.28345711175861],[144.449644496445,-38.304289153204024],[144.32724327243272,-38.347689239548636],[144.10044100441007,-38.46226546749841],[143.81243812438123,-38.698361937213114],[143.68643686436866,-38.76606607191071],[143.5388353883539,-38.82161818243181],[143.33723337233374,-38.757386054641785],[143.22563225632257,-38.74349802701151],[143.08163081630818,-38.64628183359957],[142.84042840428407,-38.58031370235577],[142.61362613626136,-38.45184944677571],[142.4552245522455,-38.3858813155319],[142.3436234362344,-38.37199328790162],[142.1888218882189,-38.39976934316217],[141.92601926019262,-38.28345711175861],[141.72441724417246,-38.271305087582114],[141.59481594815952,-38.38761731898568],[141.49041490414908,-38.37893730171676],[141.42561425614258,-38.363313270632695],[141.21321213212133,-38.1723528907164],[141.01161011610117,-38.07687270075825],[140.62640626406267,-38.02826460405228],[140.38880388803886,-37.896328341564654],[140.21240212402125,-37.642871837312114],[139.87399873998743,-37.35122325707631],[139.78399783997838,-37.24532704639545],[139.74079740797407,-37.141166839168385],[139.7371973719737,-37.05957467684051],[139.78399783997838,-36.9033343659999],[139.84519845198452,-36.74883005861307],[139.8559985599856,-36.66202988592385],[139.72999729997304,-36.372117309141835],[139.549995499955,-36.09609275999009],[139.46719467194674,-36.01102859075465],[139.2439924399244,-35.82701222465349],[139.03879038790387,-35.68986795180451],[138.98478984789847,-35.61695580674556],[138.97038970389707,-35.58049973421608],[139.06759067590679,-35.59785976875393],[139.1107911079111,-35.54230765823282],[139.17919179191796,-35.52321162024119],[139.229592295923,-35.59785976875393],[139.29079290792907,-35.6117477963842],[139.29079290792907,-35.48675554771172],[139.32679326793271,-35.42599542682926],[139.30159301593017,-35.39995537502249],[139.28359283592835,-35.375651326669505],[139.19359193591936,-35.34787527140895],[139.09279092790928,-35.389539354299785],[139.01719017190175,-35.443355461367105],[138.91638916389167,-35.4884915511655],[138.87678876788772,-35.53709964787147],[138.77238772387727,-35.53883565132525],[138.7291872918729,-35.550987675501744],[138.52038520385207,-35.642995858552325],[138.39078390783908,-35.64473186200611],[138.18558185581855,-35.61348379983799],[138.25038250382505,-35.48675554771172],[138.3331833318333,-35.41210739919898],[138.40158401584017,-35.32530722650976],[138.50958509585098,-35.02497862900503],[138.49158491584916,-34.762842107483564],[138.43758437584376,-34.65694589680271],[138.2647826478265,-34.43994546507964],[138.18558185581855,-34.30800920259202],[138.08838088380884,-34.169128926289254],[138.04158041580416,-34.24898508516334],[138.0127801278013,-34.334049254398785],[137.91917919179195,-34.455569496163704],[137.87237872378722,-34.728122038407875],[137.69237692376925,-35.14302686386238],[137.56637566375667,-35.14823487422373],[137.45837458374587,-35.13087483968589],[137.2711727117271,-35.17948293639186],[137.14517145171453,-35.23677105036674],[137.029970299703,-35.23677105036674],[136.96516965169656,-35.254131084904586],[136.88236882368824,-35.24024305727431],[137.0155701557016,-34.9156104114166],[137.1271712717127,-34.924290428685524],[137.25317253172534,-34.91213840450904],[137.30717307173074,-34.91734641487039],[137.389973899739,-34.91387440796282],[137.4547745477455,-34.76457811093735],[137.49437494374945,-34.59792177937403],[137.4691746917469,-34.490289565239394],[137.45837458374587,-34.37918534419718],[137.48357483574836,-34.25245709207091],[137.49437494374945,-34.16044890902033],[137.64917649176493,-33.85838430806182],[137.78237782377823,-33.703880000675],[137.93357933579335,-33.57888775200251],[137.9155791557916,-33.46083951714516],[137.86517865178655,-33.313279223573474],[137.8507785077851,-33.200438999077484],[137.92277922779226,-33.16571893000179],[137.99117991179912,-33.09454278839662],[137.91197911979123,-32.76991014253891],[137.8615786157862,-32.674429952580766],[137.78237782377823,-32.578949762622614],[137.78237782377823,-32.70220600784132],[137.78957789577896,-32.82372624960624],[137.68157681576815,-32.97823055699306],[137.53757537575376,-33.08933477803527],[137.4439744397444,-33.19349498526234],[137.35397353973542,-33.42959145497704],[137.23877238772388,-33.62923185216226],[137.13077130771308,-33.703880000675],[137.03357033570336,-33.71950403175906],[136.93636936369364,-33.750752093927176],[136.78516785167852,-33.828872249347484],[136.6339663396634,-33.89657638404508],[136.5259652596526,-33.98337655673431],[136.43236432364324,-34.03024864998649],[136.12276122761227,-34.42952944435693],[135.97875978759788,-34.56146570684456],[135.94995949959502,-34.61528181391188],[135.89235892358926,-34.660417903710275],[135.90315903159035,-34.7246500315003],[135.94995949959502,-34.766314114391136],[135.9967599675997,-34.943386466677154],[135.9679596795968,-34.981578542660415],[135.91755917559175,-34.962482504668785],[135.79155791557918,-34.86353030780307],[135.71235712357122,-34.89998638033254],[135.64755647556478,-34.93991445976959],[135.4819548195482,-34.757634097122214],[135.40995409954098,-34.71597001423138],[135.32355323553236,-34.64305786917243],[135.229952299523,-34.58056174483619],[135.19035190351906,-34.571881727567266],[135.1219512195122,-34.58576975519754],[135.12915129151293,-34.53716165849158],[135.1759517595176,-34.49723357905453],[135.21555215552155,-34.48681755833182],[135.29115291152914,-34.5458416757605],[135.37755377553776,-34.59792177937403],[135.4279542795428,-34.601393786281605],[135.449554495545,-34.58056174483619],[135.36675366753667,-34.37571333728961],[135.31275312753127,-34.19516897809602],[135.28755287552877,-34.14308887448249],[135.2191521915219,-33.959072508381325],[135.1867518675187,-33.906992404767784],[135.0427504275043,-33.77852814918773],[134.88794887948882,-33.62575984525469],[134.84834848348487,-33.4452154860611],[134.7907479074791,-33.32890325465754],[134.71874718747188,-33.25599110959858],[134.6071460714607,-33.190022978354776],[134.3011430114301,-33.16571893000179],[134.17514175141753,-32.97996656044685],[134.09954099540994,-32.7490781010935],[134.1571415714157,-32.73345407000944],[134.22554225542257,-32.72998206310187],[134.25074250742506,-32.65880592149671],[134.2327423274233,-32.547701700454496],[133.93033930339305,-32.412293431059304],[133.78633786337866,-32.26820514439518],[133.6639366393664,-32.207445023512726],[133.55233552335523,-32.183140975159745],[133.4011340113401,-32.188348985521095],[133.21033210332104,-32.183140975159745],[132.75672756727568,-31.955724522713965],[132.64872648726487,-31.948780508898828],[132.3247232472325,-32.01995665050399],[132.21312213122133,-32.007804626327506],[131.71991719917202,-31.697060008100074],[131.39231392313923,-31.5477637110746],[131.28431284312842,-31.521723659267835],[131.1439114391144,-31.495683607461068],[131.02871028710285,-31.532139679990543],[130.94950949509496,-31.565123745612446],[130.78390783907838,-31.603315821595707],[130.12870128701286,-31.57901177324272],[129.56709567095675,-31.62761986994869],[129.18909189091892,-31.6606039355706],[128.9478894788948,-31.702268018461425],[128.5446854468545,-31.888020388016372],[128.06588065880658,-32.066828743756176],[127.67707677076771,-32.15189291299162],[127.32067320673207,-32.26473313748762],[127.08307083070832,-32.29771720310952],[126.78066780667808,-32.311605230739794],[126.13626136261365,-32.256053120218695],[125.91665916659167,-32.29771720310952],[125.56745567455675,-32.50603761756366],[125.46305463054631,-32.55638171772342],[125.26505265052651,-32.61366983169831],[124.75744757447575,-32.88275036703491],[124.52344523445237,-32.9400384810098],[124.37224372243725,-32.95913451900143],[124.24264242642425,-33.01468662952254],[124.12744127441277,-33.12926285747231],[123.96543965439656,-33.44695148951489],[123.86823868238685,-33.59624778654035],[123.64863648636486,-33.83581626316262],[123.50823508235084,-33.915672422036714],[123.36423364233644,-33.905256401314006],[123.2058320583206,-33.988584567095664],[123.06903069030693,-33.90004839095265],[122.95742957429576,-33.88442435986859],[122.77742777427773,-33.891368373683726],[122.15102151021512,-33.99205657400323],[122.06102061020613,-33.87400833914588],[121.94581945819459,-33.856648304608036],[121.72981729817297,-33.86185631496939],[121.4058140581406,-33.8271362458937],[120.81540815408152,-33.87053633223831],[120.5310053100531,-33.91914442894428],[120.41940419404193,-33.96254451528889],[120.2106021060211,-33.93476846002834],[119.85419854198545,-33.974696539465384],[119.72819728197283,-34.0406646707092],[119.63459634596347,-34.101424791591654],[119.45099450994513,-34.368769323474474],[119.24939249392497,-34.45730549961748],[119.08019080190803,-34.45904150307127],[118.89658896588969,-34.479873544516686],[118.51858518585186,-34.7368020556768],[118.13698136981372,-34.98678655302177],[118.00738007380073,-35.01282660482854],[117.86337863378634,-35.054490687719365],[117.67617676176764,-35.07532272916478],[117.58257582575828,-35.097890774063984],[117.14337143371432,-35.033658646273956],[116.86616866168663,-35.02671463245881],[116.51696516965171,-34.98852255647555],[116.21816218162184,-34.86526631125685],[115.98775987759876,-34.79582617310547],[115.72495724957253,-34.52674563776887],[115.56655566555668,-34.426057437449366],[115.27855278552789,-34.304537195684446],[115.19575195751958,-34.30800920259202],[115.12735127351277,-34.34099326821392],[115.00855008550087,-34.25592909897848],[115.00495004950051,-34.14482487793627],[114.97254972549729,-34.051080691431906],[114.97614976149765,-33.8045682009945],[114.99414994149942,-33.51465562421248],[115.09855098550986,-33.580623755456294],[115.18135181351812,-33.643119879792536],[115.35775357753579,-33.63964787288497],[115.51615516155164,-33.532015658750325],[115.60615606156063,-33.37230334100215],[115.68175681756821,-33.19349498526234],[115.67095670956712,-33.00253460534604],[115.61695616956172,-32.66748593876563],[115.6529565295653,-32.59630979716046],[115.7069570695707,-32.568533741899905],[115.72495724957253,-32.401877410336596],[115.73935739357393,-31.888020388016372],[115.69975699756998,-31.695324004646288],[115.4549545495455,-31.302987224090984],[115.29295292952929,-30.960994543695428],[115.17775177751781,-30.80822623976239],[115.07695076950773,-30.5599777458712],[114.99414994149942,-30.21624906202186],[114.96894968949692,-30.042648716643406],[114.94374943749438,-29.721488077693266],[114.97254972549729,-29.53920771504589],[114.95814958149583,-29.433311504365037],[114.85734857348575,-29.143398927583014],[114.62694626946268,-28.87258238879263],[114.5909459094591,-28.771894188473127],[114.5909459094591,-28.665997977792266],[114.53694536945369,-28.542741732573568],[114.35334353343535,-28.294493238682378],[114.16614166141665,-28.080964813866878],[114.13374133741337,-27.976804606639803],[114.09774097740979,-27.54453974664746],[114.02934029340292,-27.346635352916017],[113.70893708937092,-26.84840236167986],[113.33453334533345,-26.417873505141287],[113.23013230132301,-26.24080115285527],[113.18333183331833,-26.18177703542659],[113.21213212132125,-26.174833021611455],[113.2517325173252,-26.197401066510658],[113.29853298532987,-26.24080115285527],[113.32373323733236,-26.244273159762834],[113.34533345333455,-26.20781708723336],[113.34173341733418,-26.126224924905486],[113.35613356133564,-26.08108883510709],[113.38853388533886,-26.105392883460077],[113.4281342813428,-26.197401066510658],[113.54693546935471,-26.436969543132918],[113.58293582935829,-26.558489784897837],[113.73413734137341,-26.594945857427312],[113.78093780937809,-26.563697795259195],[113.83493834938349,-26.501201670922946],[113.85293852938531,-26.33280933590585],[113.77733777337772,-26.256425183939328],[113.70533705337056,-26.223441118317425],[113.59013590135902,-26.098448869644933],[113.51453514535149,-25.89880847245972],[113.39573395733959,-25.713056102904773],[113.39573395733959,-25.64708797166095],[113.44973449734499,-25.59847987495499],[113.53973539735398,-25.624519926761764],[113.62253622536224,-25.732152140896403],[113.71253712537128,-25.831104337762113],[113.69813698136983,-26.004704683140574],[113.68373683736837,-26.05157677639275],[113.6909369093691,-26.091504855829797],[113.72333723337232,-26.129696931813058],[113.76653766537669,-26.159208990527397],[113.81333813338136,-26.115808904182778],[113.85293852938531,-26.015120703863275],[113.8781387813878,-26.02727272803977],[113.9429394293943,-26.258161187393114],[113.99333993339934,-26.320657311729356],[114.09054090540906,-26.393569456788306],[114.17694176941768,-26.3380173462672],[114.21654216542169,-26.28940924956124],[114.20214202142023,-26.126224924905486],[114.22734227342272,-25.9682486106111],[114.21294212942132,-25.85193637920753],[113.99333993339934,-25.54466376788767],[113.79173791737918,-25.166215014962646],[113.66933669336697,-24.976990638500126],[113.56853568535689,-24.692286072079455],[113.5037350373504,-24.59506987866753],[113.41733417334177,-24.435357560919343],[113.41373413734141,-24.254813201725753],[113.42093420934208,-24.131556956507055],[113.48933489334894,-23.869420434985585],[113.55413554135544,-23.732276162136614],[113.7557375573756,-23.41805953700161],[113.76653766537669,-23.28265126760641],[113.76653766537669,-23.18022706383313],[113.79533795337954,-23.023986752992514],[113.79533795337954,-22.914618535404088],[113.76653766537669,-22.812194331630806],[113.68373683736837,-22.638593986252346],[113.79533795337954,-22.331321374932486],[113.95733957339576,-21.93898459437719],[114.0221402214022,-21.881696480402297],[114.12294122941228,-21.827880373334978],[114.1409414094141,-21.909472535662843],[114.09414094140942,-22.182025077907014],[114.16254162541628,-22.32264135766357],[114.1409414094141,-22.482353675411744],[114.2057420574206,-22.45631362360497],[114.30294302943031,-22.425065561436853],[114.37854378543784,-22.3417373956552],[114.41814418144185,-22.261881236781107],[114.60174601746019,-21.942456601284746],[114.709747097471,-21.82267236297362],[114.85734857348575,-21.735872190284397],[115.16335163351636,-21.62997597960353],[115.4549545495455,-21.491095703300772],[115.59535595355953,-21.35742343735936],[115.7717577175772,-21.24284720940959],[115.89415894158941,-21.116118957283305],[116.00936009360095,-21.031054788047868],[116.6069660696607,-20.713366156005293],[116.70776707767078,-20.65434203857663],[116.83736837368377,-20.647398024761486],[116.99576995769957,-20.657814045484187],[117.13977139771401,-20.640454010946343],[117.29457294572944,-20.713366156005293],[117.40617406174061,-20.722046173274222],[117.68337683376836,-20.64219001440013],[117.83097830978312,-20.57274987624875],[118.08658086580868,-20.418245568861934],[118.1981819818198,-20.374845482517316],[118.45738457384573,-20.326237385811353],[118.75258752587524,-20.26200525802132],[119.10539105391052,-19.994660726138505],[119.35739357393572,-20.01202076067635],[119.58419584195843,-20.03806081248311],[119.76779767797677,-19.95820465360903],[120.19620196201964,-19.909596556903054],[120.43380433804339,-19.84189242220546],[120.88020880208802,-19.664820069919443],[120.99900999009992,-19.60405994903698],[121.1790117901179,-19.47733169691071],[121.33741337413375,-19.31935538261631],[121.49221492214923,-19.105826957800815],[121.58941589415895,-18.914866577884524],[121.6290162901629,-18.8159143810188],[121.72261722617225,-18.659674070178184],[121.78381783817838,-18.536417824959486],[121.83421834218342,-18.47739370753081],[122.00702007020072,-18.394065541749157],[122.26262262622629,-18.159705075488247],[122.34542345423455,-18.11109697878227],[122.359823598236,-18.036448830269535],[122.3058230582306,-17.994784747378716],[122.23742237422374,-17.968744695571942],[122.19062190621906,-17.72049620168076],[122.14742147421475,-17.548631859756085],[122.14382143821439,-17.42884762144496],[122.16182161821621,-17.314271393495176],[122.26262262622629,-17.135463037755372],[122.33102331023309,-17.05907888578885],[122.43182431824317,-16.97054270964584],[122.52182521825222,-16.94276665438528],[122.59742597425975,-16.864646498964973],[122.71982719827201,-16.788262346998465],[122.77382773827742,-16.710142191578157],[122.84942849428495,-16.552165877283755],[122.91782917829181,-16.43238163897263],[122.97182971829722,-16.437589649333987],[123.0726307263073,-16.7153502019395],[123.1410314103141,-16.862910495511187],[123.26703267032673,-17.036510840889648],[123.38223382233821,-17.29343935204976],[123.47943479434798,-17.40975158345333],[123.52623526235266,-17.486135735419836],[123.56223562235624,-17.52085580449554],[123.57303573035733,-17.472247707789563],[123.56223562235624,-17.41495959381467],[123.60903609036092,-17.22052720699081],[123.58743587435873,-17.083382934141824],[123.59463594635946,-17.029566827074504],[123.61623616236164,-17.008734785629088],[123.66303663036632,-17.022622813259375],[123.75303753037531,-17.099006965225897],[123.79983799837999,-17.126783020486442],[123.83223832238326,-17.121575010125085],[123.8286382863829,-16.9965827614526],[123.87543875438757,-16.918462606032293],[123.85743857438575,-16.864646498964973],[123.77823778237786,-16.868118505872545],[123.74583745837458,-16.800414371174952],[123.68103681036814,-16.72403021920843],[123.60543605436055,-16.668478108687324],[123.51903519035193,-16.54001385310727],[123.49023490234902,-16.491405756401306],[123.52623526235266,-16.467101708048318],[123.58023580235806,-16.47057371495589],[123.62703627036274,-16.41675760788857],[123.6450364503645,-16.34384546282962],[123.60543605436055,-16.22406122451848],[123.64863648636486,-16.180661138173875],[123.72783727837282,-16.19281316235036],[123.85743857438575,-16.38203753881288],[123.91503915039152,-16.36294150082125],[123.9618396183962,-16.28655734885473],[124.04464044640446,-16.265725307409312],[124.13104131041314,-16.279613335039585],[124.18504185041854,-16.333429442106905],[124.30024300243002,-16.38898155262801],[124.45144451444514,-16.38203753881288],[124.5306453064531,-16.395925566443154],[124.69264692646925,-16.38550954572044],[124.7718477184772,-16.402869580258297],[124.75744757447575,-16.37335752154395],[124.66744667446676,-16.338637452468262],[124.57024570245704,-16.33169343865312],[124.4550445504455,-16.33516544556069],[124.40464404644047,-16.298709373031215],[124.3866438664387,-16.203229183073063],[124.41544415444156,-16.133789044921684],[124.43344433444338,-16.104276986207353],[124.50904509045091,-16.11642901038384],[124.57744577445777,-16.112957003476268],[124.5846458464585,-16.020948820425687],[124.60984609846099,-15.937620654644036],[124.64944649446494,-15.869916519946443],[124.64944649446494,-15.805684392156408],[124.60624606246063,-15.823044426694253],[124.50544505445055,-15.972340723719725],[124.4550445504455,-15.850820481954813],[124.38304383043834,-15.758812298904232],[124.39744397443974,-15.625140032962818],[124.44064440644405,-15.49320377047519],[124.50544505445055,-15.475843735937346],[124.56304563045632,-15.496675777382762],[124.64584645846458,-15.418555621962454],[124.69264692646925,-15.359531504533777],[124.68184681846822,-15.310923407827815],[124.69264692646925,-15.27446733529834],[124.75024750247502,-15.284883356021055],[124.97344973449736,-15.404667594332182],[125.01665016650168,-15.46716371866843],[125.06345063450635,-15.442859670315443],[125.07785077850781,-15.37515553561785],[125.07425074250745,-15.307451400920243],[125.0238502385024,-15.316131418189173],[124.90864908649087,-15.310923407827815],[124.88344883448838,-15.272731331844554],[124.89424894248941,-15.23974726622265],[124.84024840248401,-15.159891107348557],[124.9158491584916,-15.109547007188809],[124.97704977049773,-15.106075000281237],[125.0238502385024,-15.071354931205548],[125.0238502385024,-15.024482837953371],[125.03825038250386,-15.003650796507955],[125.07425074250745,-15.033162855222287],[125.18945189451898,-15.045314879398788],[125.3010530105301,-15.106075000281237],[125.3550535505355,-15.119963027911524],[125.37665376653769,-15.086978962289606],[125.38385383853841,-15.015802820684442],[125.24345243452433,-14.944626679079278],[125.23985239852402,-14.8751865409279],[125.17865178651789,-14.79359437860002],[125.17865178651789,-14.715474223179726],[125.26505265052651,-14.647770088482119],[125.28305283052833,-14.583537960692098],[125.33705337053374,-14.557497908885324],[125.43425434254345,-14.557497908885324],[125.50265502655026,-14.501945798364218],[125.57825578255785,-14.482849760372588],[125.59985599855997,-14.361329518607675],[125.59625596255961,-14.27800135282601],[125.62865628656289,-14.257169311380608],[125.70425704257042,-14.291889380456297],[125.68265682656829,-14.387369570414435],[125.68265682656829,-14.479377753465016],[125.6610566105661,-14.529721853624778],[125.68985689856902,-14.526249846717207],[125.70785707857078,-14.50541780527179],[125.74025740257406,-14.444657684389327],[125.81945819458196,-14.468961732742315],[125.84105841058414,-14.53319386053235],[125.85185851858517,-14.597425988322371],[125.89145891458918,-14.618258029767787],[125.94545945459458,-14.521041836355849],[126.02106021060212,-14.495001784549089],[126.01746017460175,-14.371745539330377],[126.04626046260466,-14.283209363187368],[126.05346053460534,-14.21724123194356],[126.10026100261001,-14.184257166321657],[126.1110611106111,-14.114817028170265],[126.07506075060752,-14.066208931464303],[126.05346053460534,-13.977672755321294],[126.11826118261183,-13.958576717329663],[126.18306183061833,-14.001976803674282],[126.229862298623,-14.113081024716479],[126.25866258662586,-14.163425124876241],[126.29826298262986,-14.135649069615681],[126.32346323463236,-14.06273692455673],[126.40266402664025,-14.019336838212126],[126.4818648186482,-14.07836095564079],[126.56826568265683,-14.161689121422455],[126.679866798668,-14.088776976363505],[126.78066780667808,-13.955104710422091],[126.76266762667626,-13.873512548094226],[126.77706777067772,-13.788448378858774],[126.90306903069029,-13.743312289060384],[127.00747007470073,-13.776296354682287],[127.09747097470978,-13.866568534279082],[127.29187291872921,-13.934272668976675],[127.45747457474573,-14.031488862388613],[127.52947529475296,-14.093984986724848],[127.67347673476735,-14.194673187044359],[127.76347763477634,-14.298833394271426],[127.8858788587886,-14.484585763826374],[128.1810818108181,-14.712002216272154],[128.19908199081993,-14.751930295709201],[128.159481594816,-14.826578444221937],[128.12348123481235,-14.923794637633861],[128.08028080280803,-15.088714965743392],[128.06948069480694,-15.330019445819445],[128.11268112681125,-15.3126594112816],[128.15588155881562,-15.225859238592378],[128.2026820268203,-15.243219273130222],[128.25308253082534,-15.298771383651328],[128.26028260282607,-15.244955276584008],[128.2278822788228,-15.213707214415876],[128.17388173881739,-15.102602993373665],[128.17388173881739,-15.043578875945002],[128.2170821708217,-14.994970779239026],[128.28548285482856,-14.93941866871792],[128.35748357483578,-14.901226592734659],[128.40428404284046,-14.869978530566542],[128.4114841148412,-14.828314447675709],[128.47628476284763,-14.788386368238676],[128.5770857708577,-14.774498340608389],[128.63468634686348,-14.781442354423532],[129.05949059490598,-14.883866558196814],[129.16389163891643,-14.988026765423896],[129.17469174691746,-15.114755017550166],[129.21429214292147,-15.159891107348557],[129.23949239492396,-15.080034948474477],[129.23229232292323,-14.906434603096017],[129.2682926829268,-14.871714534020327],[129.37989379893799,-14.897754585827101],[129.45909459094594,-14.93247465490279],[129.56709567095675,-15.047050882852574],[129.58869588695887,-15.102602993373665],[129.63549635496355,-15.13905906590314],[129.649896498965,-15.086978962289606],[129.62829628296282,-15.01233081377687],[129.61389613896142,-14.925530641087647],[129.63549635496355,-14.850882492574911],[129.76509765097654,-14.845674482213553],[129.8478984789848,-14.828314447675709],[129.80829808298085,-14.800538392415163],[129.75429754297545,-14.790122371692462],[129.66429664296646,-14.72068223354107],[129.60309603096033,-14.647770088482119],[129.70029700297005,-14.574857943423169],[129.69669696696968,-14.557497908885324],[129.6066960669607,-14.55923391233911],[129.48429484294843,-14.489793774187731],[129.37989379893799,-14.392577580775793],[129.45909459094594,-14.213769225035989],[129.6210962109621,-14.038432876203757],[129.71109711097114,-13.97940875877508],[129.71829718297187,-13.920384641346402],[129.76149761497618,-13.812752427211763],[129.79029790297903,-13.720744244161182],[129.79749797497976,-13.647832099102231],[129.8370983709837,-13.573183950589495],[129.9378993789938,-13.502007808984331],[130.07110071100715,-13.475967757177557],[130.1359013590136,-13.448191701917011],[130.20070200702008,-13.38222357067319],[130.25830258302585,-13.30236741179911],[130.1359013590136,-13.146127100958495],[130.14670146701468,-13.059326928269272],[130.16830168301686,-12.95690272449599],[130.31950319503198,-12.882254575983254],[130.39870398703988,-12.687822189159377],[130.45270452704528,-12.658310130445045],[130.57150571505719,-12.663518140806403],[130.61830618306186,-12.646158106268544],[130.61110611106113,-12.491653798881728],[130.62190621906223,-12.430893677999265],[130.67230672306727,-12.406589629646291],[130.7371073710737,-12.427421671091693],[130.7767077670777,-12.4951258057893],[130.8667086670867,-12.557621930125535],[130.89910899108992,-12.522901861049846],[130.88470884708846,-12.455197726352253],[130.87390873908743,-12.366661550209244],[130.9567095670957,-12.347565512217614],[131.02511025110255,-12.342357501856256],[131.02871028710285,-12.271181360251092],[131.01791017910182,-12.2138932462762],[131.04671046710467,-12.189589197923212],[131.21951219512198,-12.177437173746725],[131.26631266312666,-12.118413056318047],[131.29151291512915,-12.0680689561583],[131.31311313113133,-12.095845011418845],[131.3419134191342,-12.210421239368628],[131.4391143911439,-12.27638937061245],[131.72711727117274,-12.278125374066235],[131.8891188911889,-12.231253280814045],[131.95751957519576,-12.259029336074605],[132.06552065520657,-12.281597380973793],[132.1807218072181,-12.227781273906473],[132.25272252722527,-12.186117191015654],[132.37152371523717,-12.239933298082974],[132.41112411124112,-12.29548540860408],[132.43992439924398,-12.175701170292939],[132.5119251192512,-12.134037087402106],[132.58392583925843,-12.109733039049132],[132.67752677526778,-12.130565080494549],[132.71352713527136,-12.123621066679405],[132.6307263072631,-12.035084890536396],[132.63432634326347,-11.955228731662302],[132.6307263072631,-11.835444493351176],[132.6451264512645,-11.727812279216536],[132.67392673926742,-11.649692123796228],[132.47592475924762,-11.491715809501827],[132.27792277922782,-11.467411761148853],[132.13392133921343,-11.500395826770756],[132.0727207272073,-11.474355774963982],[131.9431194311943,-11.349363526291498],[131.8207182071821,-11.302491433039322],[131.81351813518137,-11.27124337087119],[131.96111961119612,-11.180971191274395],[132.0187201872019,-11.196595222358468],[132.10512105121052,-11.281659391593905],[132.15552155521556,-11.311171450308237],[132.19872198721987,-11.304227436493107],[132.22392223922242,-11.238259305249287],[132.26352263522637,-11.203539236173597],[132.3355233552336,-11.224371277619014],[132.55872558725588,-11.366723560829342],[132.68112681126814,-11.505603837132114],[132.74592745927458,-11.469147764602639],[132.85752857528576,-11.39102760918233],[132.9619296192962,-11.40665164026639],[133.02313023130233,-11.45352373351858],[133.11313113131132,-11.621916068535668],[133.18513185131854,-11.705244234317334],[133.3579335793358,-11.727812279216536],[133.44433444334442,-11.76079634483844],[133.53433534335346,-11.816348455359545],[133.6531365313653,-11.811140444998188],[133.9051390513905,-11.831972486443604],[134.13914139141394,-11.939604700578244],[134.23634236342366,-12.007308835275836],[134.35154351543514,-12.026404873267467],[134.41634416344164,-12.05244492507424],[134.5387453874539,-12.061124942343156],[134.72954729547297,-11.984740790376648],[134.8159481594816,-12.054180928528027],[134.85554855548554,-12.102789025233989],[135.02835028350285,-12.193061204830784],[135.2191521915219,-12.220837260091344],[135.35235352353527,-12.128829077040763],[135.55035550355507,-12.061124942343156],[135.68715687156873,-11.956964735116088],[135.7879578795788,-11.90662063495634],[135.88515885158853,-11.821556465720889],[135.9211592115921,-11.82502847262846],[135.84195841958422,-11.904884631502554],[135.8347583475835,-11.950020721300945],[135.89595895958962,-11.969116759292575],[135.8887588875889,-11.993420807645563],[135.80595805958063,-12.054180928528027],[135.7015570155702,-12.15139712193995],[135.70515705157055,-12.210421239368628],[135.7447574475745,-12.24166930153676],[135.79155791557918,-12.227781273906473],[135.85635856358567,-12.17917317720051],[135.93915939159393,-12.15139712193995],[136.0075600756008,-12.191325201376998],[136.03276032760328,-12.330205477679769],[136.08316083160832,-12.42221366073035],[136.19116191161913,-12.434365684906837],[136.259562595626,-12.434365684906837],[136.3279632796328,-12.30590142932678],[136.2919629196292,-12.196533211738355],[136.2487624876249,-12.172229163385367],[136.27036270362703,-12.13230108394832],[136.44316443164433,-11.95175672475473],[136.54036540365405,-11.956964735116088],[136.6087660876609,-12.134037087402106],[136.72036720367203,-12.226045270452687],[136.83556835568356,-12.219101256637558],[136.8967689676897,-12.243405304990532],[136.94716947169474,-12.3493015156714],[136.5367653676537,-12.785038382571315],[136.51876518765187,-12.833646479277277],[136.57276572765727,-12.911766634697585],[136.59436594365945,-13.003774817748166],[136.46116461164615,-13.225983259832589],[136.4107641076411,-13.23639928055529],[136.36396363963638,-13.17563915967284],[136.29556295562958,-13.13744708368958],[136.23076230762308,-13.165223138950125],[136.16596165961658,-13.180847170034184],[135.92835928359284,-13.304103415252897],[135.92835928359284,-13.621792047295457],[135.98955989559897,-13.811016423757977],[135.9535595355954,-13.934272668976675],[135.88515885158853,-14.153009104153526],[135.80595805958063,-14.234601266481405],[135.7447574475745,-14.28668137009494],[135.53955539555398,-14.585273964145884],[135.47475474754748,-14.656450105751048],[135.40635406354062,-14.75887430952433],[135.4279542795428,-14.856090502936269],[135.45315453154535,-14.923794637633861],[135.53235532355325,-15.000178789600383],[135.83115831158312,-15.159891107348557],[135.9679596795968,-15.270995328390768],[136.2055620556206,-15.402931590878396],[136.259562595626,-15.494939773928976],[136.2919629196292,-15.569587922441713],[136.46116461164615,-15.65465209167715],[136.58356583565836,-15.706732195290698],[136.61956619566195,-15.692844167660411],[136.6447664476645,-15.675484133122566],[136.67356673566735,-15.675484133122566],[136.70596705967063,-15.685900153845282],[136.6987669876699,-15.751868285089088],[136.6879668796688,-15.788324357618563],[136.6987669876699,-15.835196450870754],[136.78516785167852,-15.894220568299417],[136.9219692196922,-15.892484564845631],[137.00117001170014,-15.878596537215358],[137.09117091170913,-15.941092661551608],[137.17037170371702,-15.982756744442426],[137.29997299973002,-16.06608491022409],[137.52677526775267,-16.166773110543588],[137.70317703177034,-16.23274124178741],[137.91197911979123,-16.475781725317248],[138.07038070380707,-16.61639800507379],[138.2467824678247,-16.718822208847072],[138.50598505985062,-16.789998350452237],[138.62478624786252,-16.77784632627575],[138.81918819188195,-16.861174492057415],[139.00999009990102,-16.899366568040662],[139.1107911079111,-17.013942795990445],[139.14319143191432,-17.10074296867967],[139.1539915399154,-17.168447103377275],[139.24759247592476,-17.32815942112545],[139.4419944199442,-17.380239524738982],[139.69039690396903,-17.53995184248717],[139.89559895598956,-17.611127984092334],[139.9459994599946,-17.652792066983153],[140.03600036000358,-17.703136167142915],[140.2088020880209,-17.7048721705967],[140.51120511205113,-17.625016011722607],[140.6480064800648,-17.543423849394728],[140.8316083160832,-17.41495959381467],[140.91440914409145,-17.19275115173025],[140.9648096480965,-17.013942795990445],[141.22041220412206,-16.645910063788122],[141.29241292412928,-16.463629701140746],[141.35721357213572,-16.220589217610907],[141.41121411214112,-16.069556917131663],[141.39321393213936,-15.904636589022132],[141.45081450814507,-15.606043994971188],[141.58041580415806,-15.194611176424246],[141.62721627216274,-15.057466903575275],[141.6020160201602,-14.852618496028697],[141.5228152281523,-14.470697736196101],[141.55881558815588,-14.337025470254687],[141.59481594815952,-14.153009104153526],[141.53721537215375,-14.019336838212126],[141.47961479614798,-13.927328655161546],[141.47241472414726,-13.797128396127704],[141.5336153361534,-13.554087912597865],[141.5876158761588,-13.425623657017809],[141.64521645216456,-13.258967325454492],[141.61281612816128,-12.943014696865703],[141.73521735217355,-12.833646479277277],[141.78201782017823,-12.778094368756172],[141.87561875618758,-12.778094368756172],[141.9188191881919,-12.80239841710916],[141.92961929619298,-12.73990229277291],[141.8936189361894,-12.680878175344247],[141.87921879218794,-12.61317404064664],[141.85041850418503,-12.578453971570951],[141.79281792817932,-12.566301947394464],[141.74601746017458,-12.52984587486499],[141.67761677616778,-12.491653798881728],[141.68841688416887,-12.351037519125185],[141.80721807218072,-12.080220980334786],[141.8720187201872,-11.976060773107719],[141.91161911619116,-12.019460859452337],[141.9620196201962,-12.054180928528027],[141.96921969219693,-11.976060773107719],[141.9512195121951,-11.896204614233625],[142.04122041220415,-11.632332089258384],[142.13842138421387,-11.272979374324976],[142.16722167221673,-10.946610725013485],[142.32562325623257,-10.88411460067725],[142.40842408424083,-10.80252243834937],[142.4552245522455,-10.707042248391218],[142.54522545225456,-10.707042248391218],[142.60642606426063,-10.748706331282051],[142.56682566825668,-10.819882472887215],[142.55242552425523,-10.873698579954535],[142.72162721627217,-11.01084285280352],[142.77922779227794,-11.115003060030588],[142.80442804428043,-11.213955256896313],[142.8368283682837,-11.307699443400665],[142.85122851228516,-11.432691692073163],[142.85122851228516,-11.632332089258384],[142.8728287282873,-11.821556465720889],[142.93402934029342,-11.880580583149566],[142.98802988029882,-11.918772659132827],[143.06723067230672,-11.923980669494185],[143.1788317883179,-11.955228731662302]]],[[[153.0789307893079,-25.751248178888034],[153.0537305373054,-25.77902423414858],[153.00693006930072,-25.72868013398883],[152.9781297812978,-25.5516077817028],[152.9997299973,-25.449183577929517],[153.05013050130503,-25.353703387971365],[153.06093060930613,-25.30162328435783],[153.03933039330394,-25.19399107022319],[153.19053190531906,-25.070734825004493],[153.22653226532265,-25.006502697214458],[153.2409324093241,-24.923174531432807],[153.1869318693187,-24.83290235183601],[153.1437314373144,-24.815542317298167],[153.17973179731797,-24.765198217138405],[153.22293222932228,-24.739158165331645],[153.25533255332556,-24.72874214460893],[153.28053280532805,-24.73742216187786],[153.29853298532987,-24.914494514163877],[153.359733597336,-24.976990638500126],[153.3489334893349,-25.06379081118935],[153.14013140131402,-25.513415705719552],[153.08253082530825,-25.68180804073664],[153.0789307893079,-25.751248178888034]]],[[[139.5067950679507,-16.572997918729172],[139.43119431194316,-16.66153409487218],[139.39159391593915,-16.649382070695694],[139.35559355593557,-16.696254163947884],[139.28359283592835,-16.718822208847072],[139.24039240392403,-16.718822208847072],[139.16119161191614,-16.741390253746275],[139.14679146791468,-16.71361419848573],[139.16119161191614,-16.625078022342706],[139.229592295923,-16.52786182893078],[139.29439294392944,-16.467101708048318],[139.45999459994601,-16.439325652787772],[139.58959589595895,-16.395925566443154],[139.6039960399604,-16.402869580258297],[139.69759697596976,-16.51570980475428],[139.5607956079561,-16.529597832384567],[139.5067950679507,-16.572997918729172]]],[[[136.71316713167136,-13.804072409942833],[136.75636756367567,-13.845736492833666],[136.80316803168034,-13.842264485926094],[136.84636846368466,-13.750256302875513],[136.87156871568715,-13.764144330505786],[136.88956889568897,-13.786712375404989],[136.90396903969042,-13.826640454842035],[136.8427684276843,-13.896080592993414],[136.81396813968144,-13.90649661371613],[136.7887678876789,-13.946424693153176],[136.74556745567457,-14.073152945279446],[136.74916749167494,-14.114817028170265],[136.7887678876789,-14.158217114514883],[136.8859688596886,-14.196409190498144],[136.93276932769328,-14.1790491559603],[136.9507695076951,-14.184257166321657],[136.93276932769328,-14.246753290657892],[136.89316893168933,-14.293625383910083],[136.7635676356764,-14.272793342464666],[136.64836648366486,-14.279737356279796],[136.46116461164615,-14.234601266481405],[136.36396363963638,-14.229393256120048],[136.33516335163353,-14.212033221582203],[136.3927639276393,-14.175577149052728],[136.42876428764288,-14.126969052346766],[136.4107641076411,-14.010656820943197],[136.4251642516425,-13.864832530825296],[136.53316533165332,-13.793656389220132],[136.58356583565836,-13.720744244161182],[136.6555665556656,-13.675608154362777],[136.70236702367026,-13.680816164724135],[136.69516695166953,-13.72595225452254],[136.71316713167136,-13.804072409942833]]],[[[130.459904599046,-11.67920418251056],[130.54270542705427,-11.703508230863548],[130.57870578705786,-11.736492296485451],[130.6039060390604,-11.772948369014927],[130.60750607506077,-11.816348455359545],[130.50310503105032,-11.835444493351176],[130.31590315903162,-11.77121236556114],[130.13230132301322,-11.82502847262846],[130.07830078300782,-11.82502847262846],[130.04230042300424,-11.7868363966452],[130.07110071100715,-11.680940185964346],[130.13950139501395,-11.696564217048405],[130.19710197101972,-11.658372141065144],[130.18630186301863,-11.542059909661589],[130.1539015390154,-11.477827781871554],[130.25110251102512,-11.359779547014213],[130.29430294302944,-11.33721150211501],[130.33750337503375,-11.33721150211501],[130.3771037710377,-11.420539667896662],[130.38430384303842,-11.509075844039671],[130.4311043110431,-11.592404009821337],[130.459904599046,-11.67920418251056]]],[[[130.61830618306186,-11.375403578098272],[130.75150751507516,-11.384083595367187],[130.91350913509137,-11.309435446854451],[130.9891098910989,-11.340683509022583],[131.02151021510218,-11.333739495207439],[131.14031140311403,-11.262563353602275],[131.21591215912161,-11.241731312156858],[131.26991269912702,-11.189651208543324],[131.32031320313206,-11.246939322518216],[131.43551435514354,-11.312907453762023],[131.47511475114754,-11.382347591913401],[131.52191521915222,-11.415331657535319],[131.53991539915398,-11.436163698980721],[131.46791467914682,-11.509075844039671],[131.45711457114572,-11.58719599945998],[131.38151381513813,-11.581987989098636],[131.29151291512915,-11.710452244678692],[130.94950949509496,-11.92571667294797],[130.64350643506435,-11.741700306846809],[130.51030510305105,-11.61844406162811],[130.42390423904243,-11.446579719703436],[130.4059040590406,-11.304227436493107],[130.36990369903702,-11.215691260350084],[130.38430384303842,-11.19138721199711],[130.40230402304024,-11.180971191274395],[130.42750427504274,-11.18270719472818],[130.51750517505178,-11.27992338814012],[130.5607056070561,-11.305963439946893],[130.61830618306186,-11.375403578098272]]],[[[113.18333183331833,-26.053312779846536],[113.15813158131584,-26.09497686273737],[112.96372963729641,-25.78249624105615],[112.909729097291,-25.568967816240658],[112.94572945729459,-25.530775740257397],[112.98172981729817,-25.52035971953468],[113.09693096930971,-25.815480306678054],[113.1329313293133,-25.883184441375647],[113.1329313293133,-25.95262457952704],[113.14733147331475,-25.973456620972442],[113.18333183331833,-26.053312779846536]]],[[[137.59517595175953,-35.73847604851048],[137.83637836378364,-35.76278009686346],[137.929979299793,-35.726324024333984],[138.04518045180453,-35.75583608304832],[138.12438124381242,-35.853052276460254],[138.0667806678067,-35.89992436971244],[138.0127801278013,-35.90686838352757],[137.83637836378364,-35.866940304090534],[137.67077670776706,-35.89818836625865],[137.62397623976238,-35.9381164456957],[137.59157591575917,-36.02665262183871],[137.44757447574477,-36.075260718544676],[137.38277382773828,-36.02144461147736],[137.20997209972103,-35.983252535494096],[137.1487714877149,-36.0388046460152],[137.02637026370263,-36.02318061493114],[136.91116911169115,-36.04748466328412],[136.75636756367567,-36.03359663565384],[136.5907659076591,-35.934644438788126],[136.54036540365405,-35.88950834898973],[136.579965799658,-35.807916186661856],[136.63756637566377,-35.748892069233186],[137.09117091170913,-35.66382789999774],[137.33237332373324,-35.59265175839258],[137.53037530375303,-35.604803782569064],[137.58437584375844,-35.62042781365313],[137.63477634776348,-35.656883886182605],[137.5987759877599,-35.72285201742641],[137.59517595175953,-35.73847604851048]]],[[[145.48645486454865,-38.35463325336377],[145.33525335253353,-38.420601384607586],[145.28125281252812,-38.39108932589325],[145.2848528485285,-38.3407452257335],[145.29565295652958,-38.3181771808343],[145.42525425254252,-38.31470517392673],[145.48645486454865,-38.35463325336377]]],[[[145.3136531365314,-38.490041522758965],[145.34965349653498,-38.538649619464934],[145.3568535685357,-38.557745657456564],[145.27045270452703,-38.5195535814733],[145.130051300513,-38.528233598742226],[145.21645216452168,-38.45879346059085],[145.28845288452885,-38.47268148822112],[145.3136531365314,-38.490041522758965]]],[[[149.0432904329043,-20.29151731673565],[149.0216902169022,-20.301933337458365],[148.9856898568986,-20.301933337458365],[148.93888938889393,-20.282837299466735],[148.98208982089824,-20.15437304388668],[149.00369003690037,-20.22207717858427],[149.04689046890468,-20.277629289105377],[149.0432904329043,-20.29151731673565]]],[[[148.93528935289356,-20.14916503352532],[148.91368913689138,-20.15437304388668],[148.8884888848889,-20.143957023163964],[148.90648906489065,-20.102292940273145],[148.9316893168932,-20.06930887465124],[148.96768967689678,-20.045004826298253],[148.9568895688957,-20.13527700589505],[148.93528935289356,-20.14916503352532]]],[[[151.1457114571146,-23.49097168206056],[151.18171181711818,-23.51701173386732],[151.21051210512104,-23.513539726959763],[151.23931239312395,-23.529163758043822],[151.22851228512286,-23.59513188928763],[151.27531275312754,-23.66804403434658],[151.29691296912972,-23.720124137960113],[151.26091260912608,-23.761788220850946],[151.23931239312395,-23.77567624848122],[151.18531185311855,-23.74095617940553],[151.03411034110343,-23.530899761497608],[151.05931059310592,-23.459723619892443],[151.1457114571146,-23.49097168206056]]],[[[150.51570515705157,-22.32264135766357],[150.48690486904871,-22.324377361117357],[150.46170461704617,-22.307017326579498],[150.48330483304835,-22.267089247142465],[150.48690486904871,-22.21153713662136],[150.5229052290523,-22.228897171159204],[150.54810548105485,-22.307017326579498],[150.51570515705157,-22.32264135766357]]],[[[149.9288992889929,-22.19244109862973],[149.89289892898933,-22.223689160797846],[149.87129871298714,-22.150777015738896],[149.8748987489875,-22.074392863772374],[149.9108991089911,-22.048352811965614],[149.9288992889929,-22.14904101228511],[149.9288992889929,-22.19244109862973]]],[[[153.53973539735398,-27.436907532512812],[153.45333453334536,-27.71119607821077],[153.4281342813428,-27.705988067849418],[153.3957339573396,-27.664323984958592],[153.39933399333995,-27.506347670664198],[153.43533435334353,-27.405659470344695],[153.52173521735216,-27.42301950488254],[153.53973539735398,-27.436907532512812]]],[[[153.44253442534426,-27.3153872907479],[153.42093420934208,-27.33101132183196],[153.37773377733777,-27.235531131873806],[153.36333363333637,-27.138314938461875],[153.38133381333813,-27.049778762318866],[153.43173431734317,-27.030682724327235],[153.4677346773468,-27.03762673814237],[153.4281342813428,-27.200811062798117],[153.44253442534426,-27.3153872907479]]],[[[142.27522275222753,-10.705306244937432],[142.19242192421927,-10.762594358912324],[142.13842138421387,-10.731346296744206],[142.12402124021241,-10.668850172407957],[142.13122131221314,-10.641074117147411],[142.19962199621995,-10.592466020441435],[142.27522275222753,-10.705306244937432]]],[[[142.34002340023403,-10.191449222617209],[142.2788227882279,-10.253945346953458],[142.21762217622177,-10.234849308961827],[142.19602196021964,-10.200129239886138],[142.21762217622177,-10.14978513972639],[142.30042300423003,-10.14110512245746],[142.34002340023403,-10.191449222617209]]],[[[142.16722167221673,-10.153257146633948],[142.14202142021423,-10.181033201894508],[142.09882098820987,-10.12200908446583],[142.1492214922149,-10.052568946314452],[142.19242192421927,-10.085553011936355],[142.16722167221673,-10.153257146633948]]],[[[146.27846278462783,-18.230881217093412],[146.30006300063002,-18.326361407051564],[146.34326343263433,-18.399273552110515],[146.3252632526325,-18.447881648816477],[146.30006300063002,-18.484337721345952],[146.23526235262352,-18.45135365572405],[146.1920619206192,-18.36281747958104],[146.11646116461168,-18.291641337975875],[146.09846098460986,-18.251713258538828],[146.18846188461885,-18.2551852654464],[146.23166231662316,-18.241297237816113],[146.24966249662498,-18.225673206732054],[146.27846278462783,-18.230881217093412]]],[[[136.59796597965982,-11.378875585005844],[136.5259652596526,-11.439635705888293],[136.52236522365223,-11.394499616089902],[136.55836558365587,-11.358043543560427],[136.64836648366486,-11.212219253442527],[136.6879668796688,-11.177499184366837],[136.709567095671,-11.158403146375207],[136.72756727567275,-11.104587039307887],[136.73116731167312,-11.024730880433793],[136.78156781567816,-11.012578856257306],[136.7419674196742,-11.194859218904682],[136.59796597965982,-11.378875585005844]]],[[[136.3387633876339,-11.602820030544038],[136.18036180361804,-11.677468179056774],[136.26676266762667,-11.576779978737278],[136.45036450364506,-11.486507799140483],[136.47916479164792,-11.465675757695067],[136.4719647196472,-11.509075844039671],[136.37836378363784,-11.583723992552407],[136.3387633876339,-11.602820030544038]]],[[[137.0947709477095,-15.777908336895862],[137.05157051570518,-15.824780430148039],[136.99756997569978,-15.776172333442076],[136.98676986769868,-15.725828233282314],[136.94356943569437,-15.711940205652041],[136.96516965169656,-15.665068112399865],[136.98676986769868,-15.652916088223364],[137.00837008370087,-15.595627974248487],[137.06597065970664,-15.66333210894608],[137.06957069570694,-15.737980257458815],[137.0947709477095,-15.777908336895862]]],[[[136.86436864368648,-15.61993202260146],[136.84636846368466,-15.626876036416604],[136.84636846368466,-15.543547870634939],[136.8751687516875,-15.50188378774412],[136.88956889568897,-15.588683960433343],[136.86436864368648,-15.61993202260146]]],[[[136.5907659076591,-15.62861203987039],[136.52956529565296,-15.632084046777962],[136.5151651516515,-15.626876036416604],[136.50436504365047,-15.583475950071985],[136.52236522365223,-15.543547870634939],[136.58716587165873,-15.533131849912237],[136.61236612366127,-15.543547870634939],[136.5907659076591,-15.62861203987039]]],[[[139.45999459994601,-17.114630996309955],[139.42039420394207,-17.1319910308478],[139.40959409594097,-17.090326947956967],[139.45999459994601,-17.048662865066134],[139.49239492394923,-16.98963874763747],[139.5607956079561,-17.041718851251005],[139.5715957159572,-17.09379895486454],[139.45999459994601,-17.114630996309955]]],[[[136.2379623796238,-13.82490445138825],[136.21276212762126,-13.835320472110965],[136.12276122761227,-13.816224434119334],[136.12276122761227,-13.77976836158986],[136.13356133561336,-13.753728309783085],[136.1587615876159,-13.73636827524524],[136.21636216362162,-13.665192133640076],[136.25596255962563,-13.706856216530909],[136.2739627396274,-13.791920385766346],[136.2379623796238,-13.82490445138825]]],[[[132.59472594725946,-11.302491433039322],[132.57312573125733,-11.31811546412338],[132.49392493924938,-11.16361115673655],[132.51552515525157,-11.116739063484374],[132.48312483124835,-11.03688290461028],[132.53712537125375,-11.028202887341365],[132.58032580325806,-10.969178769912688],[132.59472594725946,-10.996954825173233],[132.59832598325983,-11.106323042761659],[132.6307263072631,-11.168819167097908],[132.59472594725946,-11.302491433039322]]],[[[125.20025200252002,-14.580065953784526],[125.13545135451358,-14.642562078120775],[125.09225092250921,-14.592217977961013],[125.11745117451176,-14.491529777641517],[125.16065160651607,-14.456809708565828],[125.19665196651965,-14.474169743103673],[125.19305193051929,-14.552289898523966],[125.20025200252002,-14.580065953784526]]],[[[124.5990459904599,-15.40119558742461],[124.55944559445595,-15.430707646138956],[124.52344523445237,-15.422027628870026],[124.52344523445237,-15.38209954943298],[124.48384483844842,-15.340435466542147],[124.50544505445055,-15.291827369836184],[124.519845198452,-15.267523321483196],[124.55224552245522,-15.270995328390768],[124.56304563045632,-15.310923407827815],[124.60624606246063,-15.35605949762622],[124.5990459904599,-15.40119558742461]]],[[[115.44775447754478,-20.78801430451803],[115.38655386553864,-20.866134459938337],[115.31815318153184,-20.850510428854278],[115.30735307353075,-20.81058234941723],[115.35415354153542,-20.74635022162721],[115.43335433354332,-20.668230066206903],[115.45855458554587,-20.716838162912865],[115.44775447754478,-20.78801430451803]]],[[[145.04365043650438,-40.78677409211591],[145.15885158851592,-40.790246099023484],[145.22365223652235,-40.765942050670496],[145.28125281252812,-40.76941405757807],[145.34965349653498,-40.82670217155296],[145.42885428854288,-40.85795023372108],[145.48645486454865,-40.852742223359726],[145.53325533255332,-40.863158244082435],[145.57645576455764,-40.90482232697326],[145.68445684456844,-40.93954239604895],[145.73485734857348,-40.96211044094815],[145.77445774457743,-40.99683051002384],[145.82125821258217,-41.024606565284394],[146.1128611286113,-41.11835075178876],[146.31806318063184,-41.16348684158716],[146.5736657366574,-41.14265480014174],[146.64926649266494,-41.116614748334975],[146.72486724867252,-41.078422672351714],[146.7860678606786,-41.1131427414274],[146.84726847268473,-41.16869485194851],[146.83646836468364,-41.10967073451984],[146.85806858068582,-41.0575906309063],[146.91926919269196,-41.01766255146926],[146.99126991269912,-40.99162249966249],[147.10647106471066,-40.995094506570055],[147.21807218072183,-40.98294248239356],[147.26847268472687,-40.960374437494366],[147.3188731887319,-40.956902430586794],[147.38727387273872,-40.98641448930113],[147.45567455674558,-41.00203852038519],[147.50247502475025,-40.96384644440194],[147.57807578075784,-40.87531026825892],[147.62127621276215,-40.844062206090804],[147.81927819278195,-40.87183826135136],[147.87327873278736,-40.87183826135136],[147.97047970479707,-40.779830078300776],[148.0316803168032,-40.781566081754555],[148.21528215282154,-40.85447822681351],[148.29448294482944,-40.946486409864086],[148.2836828368284,-41.11487874488119],[148.29088290882908,-41.173902862309866],[148.30528305283053,-41.23292697973854],[148.31248312483126,-41.349239211142105],[148.29088290882908,-41.46555144254567],[148.2872828728287,-41.55582362214246],[148.2980829808298,-41.64609580173926],[148.2872828728287,-41.816224140210146],[148.31608316083162,-41.92732836125235],[148.30168301683017,-42.00371251321887],[148.30168301683017,-42.04016858574835],[148.32688326883272,-42.07315265137026],[148.34128341283412,-42.11134472735351],[148.33048330483308,-42.15995282405948],[148.34128341283412,-42.215504934580586],[148.33048330483308,-42.26237702783277],[148.29088290882908,-42.25543301401763],[148.27648276482768,-42.21897694148816],[148.2836828368284,-42.17384085168976],[148.27648276482768,-42.1356487757065],[148.2548825488255,-42.10266471008459],[148.18288182881832,-42.06447263410133],[148.20448204482045,-42.04190458920213],[148.24048240482404,-42.02107254775672],[148.21528215282154,-41.97072844759697],[148.16848168481687,-42.012392530487794],[148.13968139681396,-42.069680644462686],[148.15768157681578,-42.088776682454316],[148.12888128881292,-42.104400713538375],[148.0676806768068,-42.17036884478219],[148.02448024480248,-42.2589050209252],[148.00648006480066,-42.34570519361443],[148.01008010080102,-42.43597737321122],[147.97407974079744,-42.5054175113626],[147.9236792367924,-42.5731216460602],[147.9128791287913,-42.658185815295646],[147.91647916479167,-42.81616212959003],[147.95607956079562,-42.960250416254155],[147.98127981279816,-43.1564188065318],[147.94527945279452,-43.18245885833858],[147.83727837278371,-43.194610882515065],[147.78687786877867,-43.22065093432183],[147.70047700477005,-43.121698737456114],[147.64647646476465,-43.02101053713661],[147.6860768607686,-42.979346454245785],[147.77247772477727,-43.00365050259877],[147.80127801278013,-42.981082457699564],[147.80847808478086,-42.95330640243902],[147.80127801278013,-42.927266350632244],[147.69327693276932,-42.87171424011114],[147.57447574475748,-42.84567418830437],[147.53487534875347,-42.87865825392628],[147.54927549275493,-42.97413844388443],[147.53847538475384,-42.99670648878363],[147.4520745207452,-43.033162561313105],[147.4088740887409,-42.89428228501034],[147.29727297272973,-42.790122077783266],[147.3008730087301,-42.84046617794302],[147.34767347673477,-42.927266350632244],[147.3440734407344,-42.96372242316172],[147.32607326073264,-43.014066523321475],[147.27927279272797,-43.03142655785932],[147.26127261272615,-43.071354637296366],[147.26127261272615,-43.12690674781747],[147.24327243272432,-43.21544292396048],[147.17127171271716,-43.25537100339753],[146.99846998469985,-43.1564188065318],[146.9840698406984,-43.189402872153714],[146.98766987669876,-43.21891493086805],[147.0776707767078,-43.27620304484294],[147.03447034470344,-43.319603131187556],[147.00567005670058,-43.369947231347304],[146.95526955269554,-43.50188349383493],[146.87246872468728,-43.61298771487714],[146.83286832868328,-43.61993172869228],[146.69966699666998,-43.602571694154435],[146.54846548465486,-43.50882750765007],[146.4116641166412,-43.519243528372776],[146.18846188461885,-43.51229951455764],[146.04446044460445,-43.54701958363333],[146.01206012060123,-43.44459537986004],[145.98325983259832,-43.408139307330565],[145.9940599405994,-43.37689124516244],[146.10926109261095,-43.354323200263245],[146.2280622806228,-43.35605920371703],[146.20646206462067,-43.316131124279984],[146.17766177661775,-43.302243096649704],[146.12366123661235,-43.31092311391863],[145.9760597605976,-43.27793904829672],[145.8716587165872,-43.291827075927],[145.80325803258035,-43.243218979221034],[145.68085680856808,-43.07656264765772],[145.6088560885609,-42.998442492237416],[145.5656556565566,-42.96719443006929],[145.51885518855192,-42.95157039898523],[145.48645486454865,-42.927266350632244],[145.26685266852672,-42.54360958734586],[145.2380523805238,-42.455073411202854],[145.19845198451986,-42.231128965664645],[145.3712537125371,-42.33876117979929],[145.4360543605436,-42.406465314496884],[145.46845468454688,-42.493265487186115],[145.5260552605526,-42.387369276505254],[145.51525515255156,-42.35438521088335],[145.36045360453608,-42.22765695875708],[145.3388533885339,-42.191200886227605],[145.33165331653316,-42.14780079988299],[145.29565295652958,-42.191200886227605],[145.23445234452345,-42.196408896588956],[145.259652596526,-42.10787272044595],[145.2380523805238,-42.01933654430293],[145.05445054450547,-41.82664016093285],[144.91404914049144,-41.64435979828547],[144.77724777247772,-41.418679349293484],[144.76644766447663,-41.39090329403293],[144.76284762847632,-41.34229519732696],[144.69804698046983,-41.19126289684771],[144.66204662046624,-41.078422672351714],[144.6476464764648,-40.98120647893978],[144.70884708847092,-40.78330208520834],[144.71964719647195,-40.67219786416613],[144.81684816848167,-40.722541964325885],[145.04365043650438,-40.78677409211591]]],[[[143.92763927639277,-40.11667675895508],[143.8988389883899,-40.12014876586265],[143.87723877238773,-40.064596655341546],[143.88803888038882,-39.983004493013674],[143.83763837638378,-39.904884337593366],[143.86643866438664,-39.82502817871928],[143.86283862838627,-39.73822800603005],[143.8808388083881,-39.70003593004679],[143.93843938439386,-39.65837184715596],[143.94923949239495,-39.583723698643226],[143.9996399964,-39.58025169173566],[144.08964089640898,-39.637539805710546],[144.1220412204122,-39.78510009928223],[144.1076410764108,-39.87363627542525],[144.14004140041402,-39.953492434299335],[144.1112411124111,-40.02293257245071],[144.03564035640358,-40.07848468297182],[143.92763927639277,-40.11667675895508]]],[[[147.99927999279993,-39.75732404402168],[148.17928179281796,-39.93786840321527],[148.26928269282695,-39.96738046192961],[148.2980829808298,-39.98647649992124],[148.29088290882908,-40.064596655341546],[148.25128251282513,-40.099316724417235],[148.32328323283235,-40.14445281421563],[148.31248312483126,-40.17396487292997],[148.2980829808298,-40.172228869476186],[148.21168211682118,-40.23298899035864],[148.10728107281074,-40.26250104907298],[148.07488074880752,-40.241669007627564],[148.0460804608046,-40.21215694891323],[148.02448024480248,-40.172228869476186],[147.89127891278912,-40.01425255518179],[147.90567905679058,-39.97085246883718],[147.87687876878772,-39.904884337593366],[147.81207812078122,-39.91009234795472],[147.7688776887769,-39.87016426851768],[147.84087840878408,-39.831972192534415],[147.9344793447935,-39.72607598185356],[147.99927999279993,-39.75732404402168]]],[[[147.3548735487355,-43.39772328660786],[147.30807308073082,-43.500147490381146],[147.23247232472323,-43.4827874558433],[147.15327153271534,-43.500147490381146],[147.10647106471066,-43.43070735222976],[147.10647106471066,-43.413347317691915],[147.16407164071643,-43.43070735222976],[147.18567185671856,-43.408139307330565],[147.20007200072,-43.378627248616226],[147.21807218072183,-43.37168323480109],[147.23247232472323,-43.33001915191026],[147.28287282872827,-43.27967505175051],[147.31167311673119,-43.27967505175051],[147.3440734407344,-43.34564318299432],[147.3548735487355,-43.39772328660786]]],[[[148.10368103681037,-42.71026591890918],[148.04968049680497,-42.7189459361781],[148.02808028080284,-42.71547392927053],[148.0316803168032,-42.663393825656996],[148.02448024480248,-42.6408257807578],[148.07128071280715,-42.59395368750562],[148.14328143281432,-42.61652173240481],[148.16848168481687,-42.6512418014805],[148.10008100081,-42.68075386019484],[148.10368103681037,-42.71026591890918]]],[[[147.4340743407434,-43.24148297576725],[147.37287372873732,-43.24148297576725],[147.34767347673477,-43.232802958498326],[147.33687336873368,-43.18245885833858],[147.29727297272973,-43.16162681689316],[147.3188731887319,-43.1460027858091],[147.32607326073264,-43.11475472364098],[147.35127351273513,-43.08003465456529],[147.3980739807398,-43.11822673054855],[147.4340743407434,-43.24148297576725]]],[[[144.78444784447845,-40.5072775360566],[144.74844748447487,-40.58886969838447],[144.70884708847092,-40.4847094911574],[144.75204752047523,-40.47082146352712],[144.78444784447845,-40.43436539099765],[144.79164791647918,-40.439573401359006],[144.78444784447845,-40.5072775360566]]],[[[148.32688326883272,-40.30763713887138],[148.42048420484207,-40.366661256300056],[148.47448474484747,-40.43262938754387],[148.40248402484025,-40.48644549461119],[148.3520835208352,-40.4968615153339],[148.319683196832,-40.43436539099765],[148.21528215282154,-40.45693343589685],[148.10368103681037,-40.45172542553549],[148.0208802088021,-40.40485333228332],[148.01008010080102,-40.38054928393033],[148.06048060480606,-40.35624523557735],[148.19728197281972,-40.35798123903113],[148.32688326883272,-40.30763713887138]]],[[[148.23688236882367,-40.51595755332552],[148.18648186481863,-40.59234170529204],[148.12528125281256,-40.543733608586074],[148.11808118081183,-40.52116556368688],[148.19368193681936,-40.503805529149034],[148.2188821888219,-40.50554153260282],[148.23688236882367,-40.51595755332552]]],[[[158.87858878588787,-54.70952179146791],[158.84618846188465,-54.749449870904954],[158.83538835388356,-54.704313781106556],[158.8965889658897,-54.506409387375115],[158.95778957789577,-54.471689318299426],[158.94698946989473,-54.5758495255265],[158.87858878588787,-54.70952179146791]]]]}}]}