{"type":"FeatureCollection","features":[{"type":"Feature","properties":{"name":"Melbourne City","zone":"Inner city","ptPct":16.5,"carPct":15.7,"wfhPct":38.6,"lon":144.96,"lat":-37.81},"geometry":{"type":"Polygon","coordinates":[[[144.77372950819674,-37.73409836065575],[144.81311320754716,-37.86537735849054],[144.98375000000001,-37.831250000000004],[144.95875,-37.756250000000016],[144.8572627737226,-37.6837591240876],[144.79006666666666,-37.6863435897436],[144.77372950819674,-37.73409836065575]]]},"name":"Melbourne City","zone":"Inner city","ptPct":16.5,"carPct":15.7,"wfhPct":38.6,"lon":144.96,"lat":-37.81},{"type":"Feature","properties":{"name":"Port Phillip","zone":"Inner city","ptPct":7.8,"carPct":28.6,"wfhPct":43.9,"lon":144.97,"lat":-37.86},"geometry":{"type":"Polygon","coordinates":[[[144.81311320754716,-37.86537735849054],[144.8221101220109,-37.93510344558461],[144.89244892448926,-37.899800348472226],[144.9860498604986,-37.95188045208576],[145.02068576004166,-37.983428800208316],[144.9907142857143,-37.83357142857143],[144.98375000000001,-37.831250000000004],[144.81311320754716,-37.86537735849054]]]},"name":"Port Phillip","zone":"Inner city","ptPct":7.8,"carPct":28.6,"wfhPct":43.9,"lon":144.97,"lat":-37.86},{"type":"Feature","properties":{"name":"Yarra","zone":"Inner suburb","ptPct":8.1,"carPct":26,"wfhPct":46.9,"lon":144.99,"lat":-37.8},"geometry":{"type":"Polygon","coordinates":[[[144.95875,-37.756250000000016],[144.98375000000001,-37.831250000000004],[144.9907142857143,-37.83357142857143],[145.03,-37.81000000000001],[145.03692307692307,-37.78230769230768],[144.95875,-37.756250000000016]]]},"name":"Yarra","zone":"Inner suburb","ptPct":8.1,"carPct":26,"wfhPct":46.9,"lon":144.99,"lat":-37.8},{"type":"Feature","properties":{"name":"Stonnington","zone":"Inner suburb","ptPct":8.2,"carPct":30,"wfhPct":44,"lon":145.02,"lat":-37.85},"geometry":{"type":"Polygon","coordinates":[[[144.9907142857143,-37.83357142857143],[145.02068576004166,-37.983428800208316],[145.03151279585185,-37.99329068049385],[145.06766666666667,-37.87277777777778],[145.03,-37.81000000000001],[144.9907142857143,-37.83357142857143]]]},"name":"Stonnington","zone":"Inner suburb","ptPct":8.2,"carPct":30,"wfhPct":44,"lon":145.02,"lat":-37.85},{"type":"Feature","properties":{"name":"Boroondara","zone":"Inner suburb","ptPct":5.3,"carPct":36.5,"wfhPct":39.6,"lon":145.07,"lat":-37.82},"geometry":{"type":"Polygon","coordinates":[[[145.03,-37.81000000000001],[145.06766666666667,-37.87277777777778],[145.105,-37.841666666666676],[145.105,-37.73125],[145.03692307692307,-37.78230769230768],[145.03,-37.81000000000001]]]},"name":"Boroondara","zone":"Inner suburb","ptPct":5.3,"carPct":36.5,"wfhPct":39.6,"lon":145.07,"lat":-37.82},{"type":"Feature","properties":{"name":"Darebin","zone":"Inner suburb","ptPct":7.1,"carPct":38.5,"wfhPct":36,"lon":145.01,"lat":-37.74},"geometry":{"type":"Polygon","coordinates":[[[144.8572627737226,-37.6837591240876],[144.95875,-37.756250000000016],[145.03692307692307,-37.78230769230768],[145.105,-37.73125],[145.1496,-37.658775],[145.06262039660055,-37.618909348441925],[144.8572627737226,-37.6837591240876]]]},"name":"Darebin","zone":"Inner suburb","ptPct":7.1,"carPct":38.5,"wfhPct":36,"lon":145.01,"lat":-37.74},{"type":"Feature","properties":{"name":"Whitehorse","zone":"Middle suburb","ptPct":5,"carPct":44.8,"wfhPct":29.9,"lon":145.14,"lat":-37.82},"geometry":{"type":"Polygon","coordinates":[[[145.105,-37.841666666666676],[145.18,-37.86666666666665],[145.31077922077918,-37.64870129870131],[145.1496,-37.658775],[145.105,-37.73125],[145.105,-37.841666666666676]]]},"name":"Whitehorse","zone":"Middle suburb","ptPct":5,"carPct":44.8,"wfhPct":29.9,"lon":145.14,"lat":-37.82},{"type":"Feature","properties":{"name":"Monash","zone":"Middle suburb","ptPct":6.1,"carPct":47.5,"wfhPct":31.6,"lon":145.12,"lat":-37.88},"geometry":{"type":"Polygon","coordinates":[[[145.03151279585185,-37.99329068049385],[145.0508505085051,-38.01090456951444],[145.05653056972415,-38.01753590482503],[145.18,-38.012962962962966],[145.18,-37.86666666666665],[145.105,-37.841666666666676],[145.06766666666667,-37.87277777777778],[145.03151279585185,-37.99329068049385]]]},"name":"Monash","zone":"Middle suburb","ptPct":6.1,"carPct":47.5,"wfhPct":31.6,"lon":145.12,"lat":-37.88},{"type":"Feature","properties":{"name":"Wyndham","zone":"Outer suburb","ptPct":5.9,"carPct":55.1,"wfhPct":25.3,"lon":144.66,"lat":-37.9},"geometry":{"type":"MultiPolygon","coordinates":[[[[144.38453514739228,-37.87562358276643],[144.54476188153464,-38.074304733102956],[144.8221101220109,-37.935103445584616],[144.81311320754716,-37.86537735849054],[144.77372950819674,-37.73409836065575],[144.38453514739228,-37.87562358276643]]],[[[144.64086626228368,-38.19347416523175],[144.65820697409336,-38.21497664787576],[144.66564665646655,-38.21054496669966],[144.64086626228368,-38.19347416523175]]]]},"name":"Wyndham","zone":"Outer suburb","ptPct":5.9,"carPct":55.1,"wfhPct":25.3,"lon":144.66,"lat":-37.9},{"type":"Feature","properties":{"name":"Whittlesea","zone":"Outer suburb","ptPct":4,"carPct":61.5,"wfhPct":22,"lon":145.12,"lat":-37.5},"geometry":{"type":"Polygon","coordinates":[[[144.864052443385,-36.94377830750892],[145.06262039660055,-37.618909348441925],[145.1496,-37.658775],[145.31077922077918,-37.64870129870131],[146.5409302325581,-37.260232558139535],[144.938243902439,-36.85956097560975],[144.864052443385,-36.94377830750892]]]},"name":"Whittlesea","zone":"Outer suburb","ptPct":4,"carPct":61.5,"wfhPct":22,"lon":145.12,"lat":-37.5},{"type":"Feature","properties":{"name":"Hume","zone":"Outer suburb","ptPct":4.3,"carPct":63.8,"wfhPct":17.8,"lon":144.95,"lat":-37.55},"geometry":{"type":"Polygon","coordinates":[[[144.6060463890353,-37.162593568792836],[144.79006666666666,-37.6863435897436],[144.8572627737226,-37.6837591240876],[145.06262039660055,-37.618909348441925],[144.864052443385,-36.94377830750892],[144.6060463890353,-37.162593568792836]]]},"name":"Hume","zone":"Outer suburb","ptPct":4.3,"carPct":63.8,"wfhPct":17.8,"lon":144.95,"lat":-37.55},{"type":"Feature","properties":{"name":"Melton","zone":"Outer suburb","ptPct":3.7,"carPct":63.3,"wfhPct":22,"lon":144.58,"lat":-37.68},"geometry":{"type":"Polygon","coordinates":[[[144.19301639344263,-37.781901639344255],[144.38453514739228,-37.87562358276643],[144.77372950819674,-37.73409836065575],[144.79006666666666,-37.6863435897436],[144.6060463890353,-37.162593568792836],[144.27842911877397,-37.26942528735632],[144.19301639344263,-37.781901639344255]]]},"name":"Melton","zone":"Outer suburb","ptPct":3.7,"carPct":63.3,"wfhPct":22,"lon":144.58,"lat":-37.68},{"type":"Feature","properties":{"name":"Knox","zone":"Outer suburb","ptPct":2.5,"carPct":59.5,"wfhPct":25.6,"lon":145.24,"lat":-37.88},"geometry":{"type":"Polygon","coordinates":[[[145.18,-38.012962962962966],[146.79498895529588,-38.67092142623174],[146.85806858068582,-38.663641868137425],[147.39447394473945,-38.21922498396858],[147.63207632076325,-38.056040659312835],[147.87687876878772,-37.934520417547915],[148.12888128881292,-37.856400262127615],[148.26208262082622,-37.83036021032084],[148.94248942489423,-37.788696127430015],[149.29889298892988,-37.80258415506029],[149.48249482494828,-37.77133609289217],[149.56529565295654,-37.72967201000134],[149.70929709297093,-37.61683178550535],[149.73272754324657,-37.6006909379463],[149.68767546683839,-37.59588538312942],[149.6,-37.7],[149.3,-37.75],[148.9,-37.7],[148.6,-37.51],[148.571572327044,-37.476834381551356],[146.5409302325581,-37.260232558139535],[145.31077922077918,-37.64870129870131],[145.18,-37.86666666666665],[145.18,-38.012962962962966]]]},"name":"Knox","zone":"Outer suburb","ptPct":2.5,"carPct":59.5,"wfhPct":25.6,"lon":145.24,"lat":-37.88},{"type":"Feature","properties":{"name":"Frankston","zone":"Outer suburb","ptPct":3,"carPct":58.7,"wfhPct":24.7,"lon":145.13,"lat":-38.15},"geometry":{"type":"Polygon","coordinates":[[[145.04973052998517,-38.223183627769544],[145.22896931532563,-38.32276073073646],[145.2488524885249,-38.290401125573744],[145.29205292052922,-38.23832102196021],[145.3676536765368,-38.22616899778372],[145.47565475654756,-38.24352903232156],[145.51885518855192,-38.31123316701916],[145.54045540455405,-38.39456133280082],[145.46125461254616,-38.417129377700014],[145.44579594268797,-38.44321996815997],[146.48176102947966,-39.01875612748865],[146.480064800648,-38.97785849327242],[146.4656646566466,-38.84071422042344],[146.4260642606426,-38.81988217897803],[146.3360633606336,-38.89453032749076],[146.28566285662856,-38.84071422042344],[146.21726217262176,-38.78342610644855],[146.21726217262176,-38.72787399592745],[146.2928629286293,-38.7000979406669],[146.3576635766358,-38.71224996484339],[146.43686436864368,-38.71224996484339],[146.79498895529588,-38.67092142623174],[145.18,-38.012962962962966],[145.05653056972415,-38.01753590482503],[145.1192511925119,-38.090760728388524],[145.06525065250656,-38.20533695633831],[145.04973052998517,-38.223183627769544]]]},"name":"Frankston","zone":"Outer suburb","ptPct":3,"carPct":58.7,"wfhPct":24.7,"lon":145.13,"lat":-38.15},{"type":"Feature","properties":{"name":"Mornington Peninsula","zone":"Peri-urban","ptPct":1,"carPct":57.7,"wfhPct":22.6,"lon":145.03,"lat":-38.33},"geometry":{"type":"MultiPolygon","coordinates":[[[[144.7160471604716,-38.3407452257335],[144.84564845648458,-38.436225415691645],[144.96084960849612,-38.50045754348167],[145.19125191251914,-38.38414531207811],[145.22896931532563,-38.32276073073646],[145.04973052998517,-38.223183627769544],[145.01845018450183,-38.25915306340563],[144.91044910449108,-38.344217232641064],[144.7808478084781,-38.347689239548636],[144.7160471604716,-38.3407452257335]]],[[[145.39645396453966,-38.53517761255737],[145.5368553685537,-38.6098257610701],[145.60525605256055,-38.65669785432228],[145.69165691656917,-38.654961850868496],[145.79245792457925,-38.66711387504499],[145.86445864458648,-38.776482092633415],[145.93645936459365,-38.90147434130591],[146.01926019260196,-38.86675427223021],[146.069660696607,-38.83377020660831],[146.159661596616,-38.86501826877643],[146.25326253262534,-38.96397046564215],[146.33246332463324,-39.07681069013814],[146.33966339663397,-39.12368278339032],[146.4008640086401,-39.146250828289524],[146.4548645486455,-39.111530759213835],[146.48366483664836,-39.06465866596165],[146.48176102947966,-39.01875612748865],[145.44579594268797,-38.44321996815997],[145.42525425254252,-38.47788949858248],[145.39645396453966,-38.53517761255737]]]]},"name":"Mornington Peninsula","zone":"Peri-urban","ptPct":1,"carPct":57.7,"wfhPct":22.6,"lon":145.03,"lat":-38.33},{"type":"Feature","properties":{"name":"Greater Geelong","zone":"Regional","ptPct":1.5,"carPct":68.6,"wfhPct":15.4,"lon":144.35,"lat":-38.15},"geometry":{"type":"Polygon","coordinates":[[[143.1205750205705,-38.672573288000734],[143.22563225632257,-38.74349802701151],[143.33723337233374,-38.757386054641785],[143.5388353883539,-38.82161818243181],[143.68643686436866,-38.76606607191071],[143.81243812438123,-38.698361937213114],[144.10044100441007,-38.46226546749841],[144.32724327243272,-38.347689239548636],[144.449644496445,-38.304289153204024],[144.54324543245434,-38.28345711175861],[144.65820697409336,-38.21497664787576],[144.64086626228368,-38.19347416523175],[144.59004590045902,-38.158464863086124],[144.5180451804518,-38.167144880355046],[144.39564395643959,-38.13763282164071],[144.4640446404464,-38.10291275256502],[144.53964539645398,-38.07687270075825],[144.54476188153464,-38.074304733102956],[144.38453514739228,-37.87562358276643],[144.19301639344263,-37.781901639344255],[143.1205750205705,-38.672573288000734]]]},"name":"Greater Geelong","zone":"Regional","ptPct":1.5,"carPct":68.6,"wfhPct":15.4,"lon":144.35,"lat":-38.15},{"type":"Feature","properties":{"name":"Ballarat","zone":"Regional","ptPct":1.2,"carPct":66.4,"wfhPct":15.5,"lon":143.86,"lat":-37.56},"geometry":{"type":"Polygon","coordinates":[[[140.62640626406267,-38.02826460405228],[141.01161011610117,-38.07687270075825],[141.21321213212133,-38.1723528907164],[141.42561425614258,-38.363313270632695],[141.49041490414908,-38.37893730171676],[141.59481594815952,-38.38761731898568],[141.72441724417246,-38.271305087582114],[141.92601926019262,-38.28345711175861],[142.1888218882189,-38.39976934316217],[142.3436234362344,-38.37199328790162],[142.4552245522455,-38.3858813155319],[142.61362613626136,-38.45184944677571],[142.84042840428407,-38.58031370235577],[143.08163081630818,-38.64628183359957],[143.1205750205705,-38.672573288000734],[144.19301639344263,-37.781901639344255],[144.27842911877397,-37.26942528735632],[140.84184192800504,-35.46521701220269],[140.62640626406267,-38.02826460405228]]]},"name":"Ballarat","zone":"Regional","ptPct":1.2,"carPct":66.4,"wfhPct":15.5,"lon":143.86,"lat":-37.56},{"type":"Feature","properties":{"name":"Greater Bendigo","zone":"Regional","ptPct":0.9,"carPct":67.1,"wfhPct":14.3,"lon":144.28,"lat":-36.76},"geometry":{"type":"Polygon","coordinates":[[[140.84184192800504,-35.46521701220269],[144.27842911877397,-37.26942528735632],[144.6060463890353,-37.162593568792836],[144.864052443385,-36.94377830750892],[144.938243902439,-36.85956097560975],[144.58142857142857,-35.8078947368421],[144.56,-35.8],[144.2,-35.62],[143.87,-35.28],[143.58,-35.08],[143.33,-34.86],[143,-34.7],[142.7,-34.45],[142.38,-34.22],[142,-34.2],[141.62,-34.18],[141.33,-34.15],[141,-34],[140.965,-34],[140.84184192800504,-35.46521701220269]]]},"name":"Greater Bendigo","zone":"Regional","ptPct":0.9,"carPct":67.1,"wfhPct":14.3,"lon":144.28,"lat":-36.76},{"type":"Feature","properties":{"name":"Greater Shepparton","zone":"Regional","ptPct":0.4,"carPct":68.2,"wfhPct":12.7,"lon":145.4,"lat":-36.38},"geometry":{"type":"MultiPolygon","coordinates":[[[[144.58142857142857,-35.8078947368421],[144.938243902439,-36.85956097560975],[146.5409302325581,-37.260232558139535],[148.571572327044,-37.476834381551356],[148.42,-37.3],[148.26,-37.08],[148.18,-36.76],[148.18,-36.43],[147.99,-36.33],[147.7,-36.27],[147.35,-36.13],[146.99,-36.06],[146.73,-36.05],[146.31,-36.03],[145.84,-36.09],[145.43,-36.06],[144.94,-35.94],[144.58142857142857,-35.8078947368421]]],[[[149.68767546683839,-37.59588538312942],[149.73272754324657,-37.6006909379463],[149.810098100981,-37.54739164735396],[149.93249932499327,-37.52829560936233],[149.96129961299613,-37.443231440126894],[149.76,-37.51],[149.68767546683839,-37.59588538312942]]]]},"name":"Greater Shepparton","zone":"Regional","ptPct":0.4,"carPct":68.2,"wfhPct":12.7,"lon":145.4,"lat":-36.38}]}