{"type":"FeatureCollection","features":[{"type":"Feature","properties":{"STATE_NAME":"Victoria"},"geometry":{"type":"Polygon","coordinates":[[[140.965,-34],[141,-34],[141.33,-34.15],[141.62,-34.18],[142,-34.2],[142.38,-34.22],[142.7,-34.45],[143,-34.7],[143.33,-34.86],[143.58,-35.08],[143.87,-35.28],[144.2,-35.62],[144.56,-35.8],[144.94,-35.94],[145.43,-36.06],[145.84,-36.09],[146.31,-36.03],[146.73,-36.05],[146.99,-36.06],[147.35,-36.13],[147.7,-36.27],[147.99,-36.33],[148.18,-36.43],[148.18,-36.76],[148.26,-37.08],[148.42,-37.3],[148.6,-37.51],[148.9,-37.7],[149.3,-37.75],[149.6,-37.7],[149.76,-37.51],[149.96129961299613,-37.443231440126894],[149.93249932499327,-37.52829560936233],[149.810098100981,-37.54739164735396],[149.70929709297093,-37.61683178550535],[149.56529565295654,-37.72967201000134],[149.48249482494828,-37.77133609289217],[149.29889298892988,-37.80258415506029],[148.94248942489423,-37.788696127430015],[148.26208262082622,-37.83036021032084],[148.12888128881292,-37.856400262127615],[147.87687876878772,-37.934520417547915],[147.63207632076325,-38.056040659312835],[147.39447394473945,-38.21922498396858],[146.85806858068582,-38.663641868137425],[146.43686436864368,-38.71224996484339],[146.3576635766358,-38.71224996484339],[146.2928629286293,-38.7000979406669],[146.21726217262176,-38.72787399592745],[146.21726217262176,-38.78342610644855],[146.28566285662856,-38.84071422042344],[146.3360633606336,-38.89453032749076],[146.4260642606426,-38.81988217897803],[146.4656646566466,-38.84071422042344],[146.480064800648,-38.97785849327242],[146.48366483664836,-39.06465866596165],[146.4548645486455,-39.111530759213835],[146.4008640086401,-39.146250828289524],[146.33966339663397,-39.12368278339032],[146.33246332463324,-39.07681069013814],[146.25326253262534,-38.96397046564215],[146.159661596616,-38.86501826877643],[146.069660696607,-38.83377020660831],[146.01926019260196,-38.86675427223021],[145.93645936459365,-38.90147434130591],[145.86445864458648,-38.776482092633415],[145.79245792457925,-38.66711387504499],[145.69165691656917,-38.654961850868496],[145.60525605256055,-38.65669785432228],[145.5368553685537,-38.6098257610701],[145.39645396453966,-38.53517761255737],[145.42525425254252,-38.47788949858248],[145.46125461254616,-38.417129377700014],[145.54045540455405,-38.39456133280082],[145.51885518855192,-38.31123316701916],[145.47565475654756,-38.24352903232156],[145.3676536765368,-38.22616899778372],[145.29205292052922,-38.23832102196021],[145.2488524885249,-38.290401125573744],[145.19125191251914,-38.38414531207811],[144.96084960849612,-38.50045754348167],[144.84564845648458,-38.436225415691645],[144.7160471604716,-38.3407452257335],[144.7808478084781,-38.347689239548636],[144.91044910449108,-38.344217232641064],[145.01845018450183,-38.25915306340563],[145.06525065250656,-38.20533695633831],[145.1192511925119,-38.090760728388524],[145.0508505085051,-38.01090456951444],[144.9860498604986,-37.95188045208576],[144.89244892448926,-37.899800348472226],[144.53964539645398,-38.07687270075825],[144.4640446404464,-38.10291275256502],[144.39564395643959,-38.13763282164071],[144.5180451804518,-38.167144880355046],[144.59004590045902,-38.158464863086124],[144.66564665646655,-38.21054496669966],[144.54324543245434,-38.28345711175861],[144.449644496445,-38.304289153204024],[144.32724327243272,-38.347689239548636],[144.10044100441007,-38.46226546749841],[143.81243812438123,-38.698361937213114],[143.68643686436866,-38.76606607191071],[143.5388353883539,-38.82161818243181],[143.33723337233374,-38.757386054641785],[143.22563225632257,-38.74349802701151],[143.08163081630818,-38.64628183359957],[142.84042840428407,-38.58031370235577],[142.61362613626136,-38.45184944677571],[142.4552245522455,-38.3858813155319],[142.3436234362344,-38.37199328790162],[142.1888218882189,-38.39976934316217],[141.92601926019262,-38.28345711175861],[141.72441724417246,-38.271305087582114],[141.59481594815952,-38.38761731898568],[141.49041490414908,-38.37893730171676],[141.42561425614258,-38.363313270632695],[141.21321213212133,-38.1723528907164],[141.01161011610117,-38.07687270075825],[140.62640626406267,-38.02826460405228],[140.965,-34]]]}}]}